NORAD_CAT_ID,OBJECT_NAME,OBJECT_TYPE,EPOCH,MEAN_MOTION,ECCENTRICITY,INCLINATION,RA_OF_ASC_NODE,ARG_OF_PERICENTER,MEAN_ANOMALY,BSTAR,MEAN_MOTION_DOT,MEAN_MOTION_DDOT,TLE_LINE0,TLE_LINE1,TLE_LINE2,SEMIMAJOR_AXIS,PERIOD,APOGEE,PERIGEE,DECAYED
55745.0,STARLINK-5565,PAYLOAD,2023-11-05 22:48:01,14.98338522,0.0002829,70.0003,239.7481,269.3985,90.685,0.00019166,2.195e-05,0.0,0 STARLINK-5565,1 55745U 23028E   23309.95001751  .00002195  00000-0  19166-3 0  9999,2 55745  70.0003 239.7481 0002829 269.3985  90.6850 14.98338522 38009,6950.167,96.106,573.998,570.065,0.0
55745.0,STARLINK-5565,PAYLOAD,2023-11-06 03:36:23,14.98366745,0.0002691,69.9999,239.243,261.7481,98.3373,0.00049516,5.826e-05,0.0,0 STARLINK-5565,1 55745U 23028E   23310.15026987  .00005826  00000-0  49516-3 0  9997,2 55745  69.9999 239.2430 0002691 261.7481  98.3373 14.98366745 38039,6950.079,96.105,573.815,570.074,0.0
55745.0,STARLINK-5565,PAYLOAD,2023-11-06 13:13:14,14.98329654,0.0002719,70.0002,238.2331,271.4802,88.6046,-1.5897e-05,-2.83e-06,0.0,0 STARLINK-5565,1 55745U 23028E   23310.55086077 -.00000283  00000-0 -15897-4 0  9997,2 55745  70.0002 238.2331 0002719 271.4802  88.6046 14.98329654 38095,6950.194,96.107,573.949,570.169,0.0
55745.0,STARLINK-5565,PAYLOAD,2023-11-06 19:37:49,14.98270929,0.0002807,69.9997,237.5596,273.7084,86.3754,4.6197e-05,4.57e-06,0.0,0 STARLINK-5565,1 55745U 23028E   23310.81793462  .00000457  00000-0  46197-4 0  9997,2 55745  69.9997 237.5596 0002807 273.7084  86.3754 14.98270929 38131,6950.376,96.111,574.192,570.29,0.0
55745.0,STARLINK-5565,PAYLOAD,2023-11-06 21:13:57,14.98271421,0.0002549,69.9998,237.3908,273.9332,86.1535,0.00018195,2.075e-05,0.0,0 STARLINK-5565,1 55745U 23028E   23310.88469312  .00002075  00000-0  18195-3 0  9992,2 55745  69.9998 237.3908 0002549 273.9332  86.1535 14.98271421 38142,6950.374,96.111,574.011,570.467,0.0
55745.0,STARLINK-5565,PAYLOAD,2023-11-07 05:14:37,14.98288165,0.0002899,69.9996,236.5503,278.7376,81.3455,0.00018412,2.102e-05,0.0,0 STARLINK-5565,1 55745U 23028E   23311.21849246  .00002102  00000-0  18412-3 0  9991,2 55745  69.9996 236.5503 0002899 278.7376  81.3455 14.98288165 38197,6950.322,96.11,574.202,570.172,0.0
55745.0,STARLINK-5565,PAYLOAD,2023-11-07 19:39:49,14.98320783,0.0002974,70.0005,235.0353,270.8732,89.2086,-0.00019603,-2.431e-05,0.0,0 STARLINK-5565,1 55745U 23028E   23311.81932254 -.00002431  00000-0 -19603-3 0  9999,2 55745  70.0005 235.0353 0002974 270.8732  89.2086 14.98320783 38281,6950.221,96.108,574.153,570.019,0.0
55745.0,STARLINK-5565,PAYLOAD,2023-11-08 03:40:29,14.98321693,0.0002561,70.0016,234.1982,272.3985,87.6881,0.00011462,1.275e-05,0.0,0 STARLINK-5565,1 55745U 23028E   23312.15311648  .00001275  00000-0  11462-3 0  9993,2 55745  70.0016 234.1982 0002561 272.3985  87.6881 14.98321693 38332,6950.219,96.108,573.864,570.304,0.0
55745.0,STARLINK-5565,PAYLOAD,2023-11-08 05:16:36,14.98338499,0.0002799,70.0003,234.027,275.9321,84.1519,-4.4552e-05,-6.25e-06,0.0,0 STARLINK-5565,1 55745U 23028E   23312.21986916 -.00000625  00000-0 -44552-4 0  9993,2 55745  70.0003 234.0270 0002799 275.9321  84.1519 14.98338499 38346,6950.167,96.106,573.977,570.086,0.0
55745.0,STARLINK-5565,PAYLOAD,2023-11-08 19:41:49,14.98306925,0.0003056,70.0004,232.5124,279.8847,80.1967,0.00053026,6.236e-05,0.0,0 STARLINK-5565,1 55745U 23028E   23312.82071454  .00006236  00000-0  53026-3 0  9999,2 55745  70.0004 232.5124 0003056 279.8847  80.1967 14.98306925 38433,6950.264,96.108,574.253,570.005,0.0
55745.0,STARLINK-5565,PAYLOAD,2023-11-08 22:54:05,14.98310161,0.0002997,70.0004,232.1758,279.8131,80.269,0.00050627,5.95e-05,0.0,0 STARLINK-5565,1 55745U 23028E   23312.95423477  .00005950  00000-0  50627-3 0  9995,2 55745  70.0004 232.1758 0002997 279.8131  80.2690 14.98310161 38454,6950.254,96.108,574.202,570.036,0.0
55745.0,STARLINK-5565,PAYLOAD,2023-11-09 03:42:29,14.98327181,0.0002606,70.0001,231.6711,268.2299,91.8561,0.00049722,5.844e-05,0.0,0 STARLINK-5565,1 55745U 23028E   23313.15450606  .00005844  00000-0  49722-3 0  9998,2 55745  70.0001 231.6711 0002606 268.2299  91.8561 14.98327181 38486,6950.202,96.107,573.878,570.255,0.0
55745.0,STARLINK-5565,PAYLOAD,2023-11-09 05:18:37,14.98317457,0.0002484,70.0001,231.5027,278.7118,81.376,0.00074523,8.807e-05,0.0,0 STARLINK-5565,1 55745U 23028E   23313.22126897  .00008807  00000-0  74523-3 0  9997,2 55745  70.0001 231.5027 0002484 278.7118  81.3760 14.98317457 38496,6950.232,96.108,573.823,570.37,0.0
55745.0,STARLINK-5565,PAYLOAD,2023-11-09 19:43:51,14.98329033,0.0002658,70.0031,229.996,270.9556,89.1298,4.0792e-05,3.94e-06,0.0,0 STARLINK-5565,1 55745U 23028E   23313.82211812  .00000394  00000-0  40792-4 0  9990,2 55745  70.0031 229.9960 0002658 270.9556  89.1298 14.98329033 38584,6950.196,96.107,573.908,570.214,0.0
55745.0,STARLINK-5565,PAYLOAD,2023-11-09 22:56:06,14.98316296,0.0003085,70.0,229.6511,277.2429,82.8379,0.0003636,4.247e-05,0.0,0 STARLINK-5565,1 55745U 23028E   23313.95563617  .00004247  00000-0  36360-3 0  9993,2 55745  70.0000 229.6511 0003085 277.2429  82.8379 14.98316296 38603,6950.235,96.108,574.244,569.956,0.0
55745.0,STARLINK-5565,PAYLOAD,2023-11-10 03:44:30,14.98340034,0.0002592,70.0004,229.1473,266.4446,93.6417,0.00014355,1.621e-05,0.0,0 STARLINK-5565,1 55745U 23028E   23314.15590663  .00001621  00000-0  14355-3 0  9990,2 55745  70.0004 229.1473 0002592 266.4446  93.6417 14.98340034 38633,6950.162,96.106,573.828,570.225,0.0
55745.0,STARLINK-5565,PAYLOAD,2023-11-10 11:45:11,14.98334798,0.0002541,70.0003,228.3043,279.909,80.1782,-5.4594e-05,-7.44e-06,0.0,0 STARLINK-5565,1 55745U 23028E   23314.48971429 -.00000744  00000-0 -54594-4 0  9996,2 55745  70.0003 228.3043 0002541 279.9090  80.1782 14.98334798 38685,6950.178,96.107,573.809,570.277,0.0
55745.0,STARLINK-5565,PAYLOAD,2023-11-10 19:45:51,14.98332866,0.0002506,70.001,227.4634,270.2294,89.8578,-6.2952e-05,-8.44e-06,0.0,0 STARLINK-5565,1 55745U 23028E   23314.82351383 -.00000844  00000-0 -62952-4 0  9993,2 55745  70.0010 227.4634 0002506 270.2294  89.8578 14.98332866 38739,6950.184,96.107,573.791,570.307,0.0
55745.0,STARLINK-5565,PAYLOAD,2023-11-11 11:47:12,14.98335588,0.0002612,70.0004,225.7793,275.5725,84.5136,-0.00012718,-1.61e-05,0.0,0 STARLINK-5565,1 55745U 23028E   23315.49111138 -.00001610  00000-0 -12718-3 0  9995,2 55745  70.0004 225.7793 0002612 275.5725  84.5136 14.98335588 38831,6950.176,96.107,573.856,570.225,0.0
55745.0,STARLINK-5565,PAYLOAD,2023-11-11 21:24:00,14.983279,0.0002845,69.9999,224.7701,274.4082,85.6752,-2.7721e-05,-4.24e-06,0.0,0 STARLINK-5565,1 55745U 23028E   23315.89167296 -.00000424  00000-0 -27721-4 0  9998,2 55745  69.9999 224.7701 0002845 274.4082  85.6752 14.98327900 38892,6950.199,96.107,574.042,570.087,0.0
55745.0,STARLINK-5565,PAYLOAD,2023-11-12 11:49:12,14.98335279,0.0002828,69.9998,223.2536,270.4404,89.6431,-4.8574e-05,-6.73e-06,0.0,0 STARLINK-5565,1 55745U 23028E   23316.49250771 -.00000673  00000-0 -48574-4 0  9991,2 55745  69.9998 223.2536 0002828 270.4404  89.6431 14.98335279 38982,6950.177,96.107,574.007,570.076,0.0
55745.0,STARLINK-5565,PAYLOAD,2023-11-12 19:49:53,14.98328485,0.0002899,69.9997,222.412,271.4483,88.6344,9.5424e-05,1.046e-05,0.0,0 STARLINK-5565,1 55745U 23028E   23316.82630857  .00001046  00000-0  95424-4 0  9994,2 55745  69.9997 222.4120 0002899 271.4483  88.6344 14.98328485 39037,6950.198,96.107,574.077,570.048,0.0
55745.0,STARLINK-5565,PAYLOAD,2023-11-12 21:26:01,14.98329418,0.0002811,69.9996,222.2437,271.8968,88.1869,7.4432e-05,7.95e-06,0.0,0 STARLINK-5565,1 55745U 23028E   23316.89306871  .00000795  00000-0  74432-4 0  9993,2 55745  69.9996 222.2437 0002811 271.8968  88.1869 14.98329418 39046,6950.195,96.107,574.013,570.106,0.0
55745.0,STARLINK-5565,PAYLOAD,2023-11-13 03:50:32,14.98335899,0.0002813,69.9997,221.5704,268.5893,91.4944,0.00011214,1.245e-05,0.0,0 STARLINK-5565,1 55745U 23028E   23317.16010315  .00001245  00000-0  11214-3 0  9998,2 55745  69.9997 221.5704 0002813 268.5893  91.4944 14.98335899 39083,6950.175,96.107,573.995,570.085,0.0
55745.0,STARLINK-5565,PAYLOAD,2023-11-14 03:52:34,14.98330241,0.0002791,70.0004,219.046,271.0075,89.0764,9.5877e-05,1.051e-05,0.0,0 STARLINK-5565,1 55745U 23028E   23318.16150613  .00001051  00000-0  95877-4 0  9998,2 55745  70.0004 219.0460 0002791 271.0075  89.0764 14.98330241 39238,6950.192,96.107,573.997,570.117,0.0
55745.0,STARLINK-5565,PAYLOAD,2023-11-14 10:17:06,14.98352028,0.0002538,70.0008,218.3731,277.3058,82.7812,-0.00040445,-4.918e-05,0.0,0 STARLINK-5565,1 55745U 23028E   23318.42854315 -.00004918  00000-0 -40445-3 0  9994,2 55745  70.0008 218.3731 0002538 277.3058  82.7812 14.98352028 39279,6950.125,96.106,573.754,570.226,0.0
55745.0,STARLINK-5565,PAYLOAD,2023-11-15 03:54:35,14.98330947,0.0002405,70.0013,216.5214,278.9988,81.0899,1.4053e-06,-7.6e-07,0.0,0 STARLINK-5565,1 55745U 23028E   23319.16290876 -.00000076  00000-0  14053-5 0  9990,2 55745  70.0013 216.5214 0002405 278.9988  81.0899 14.98330947 39388,6950.19,96.107,573.726,570.383,0.0
55745.0,STARLINK-5565,PAYLOAD,2023-11-15 23:08:11,14.98330796,0.0002667,70.0017,214.502,271.6182,88.4671,4.6846e-05,4.66e-06,0.0,0 STARLINK-5565,1 55745U 23028E   23319.96402508  .00000466  00000-0  46846-4 0  9991,2 55745  70.0017 214.5020 0002667 271.6182  88.4671 14.98330796 39506,6950.19,96.107,573.909,570.202,0.0
55745.0,STARLINK-5565,PAYLOAD,2023-11-16 03:56:37,14.98316467,0.0002377,70.0022,213.9959,259.4425,100.6466,-0.00012864,-1.627e-05,0.0,0 STARLINK-5565,1 55745U 23028E   23320.16431886 -.00001627  00000-0 -12864-3 0  9990,2 55745  70.0022 213.9959 0002377 259.4425 100.6466 14.98316467 39539,6950.235,96.108,573.752,570.448,0.0
55745.0,STARLINK-5565,PAYLOAD,2023-11-16 16:45:40,14.98328282,0.0002437,70.004,212.6481,264.6424,95.4457,3.055e-05,2.72e-06,0.0,0 STARLINK-5565,1 55745U 23028E   23320.69839050  .00000272  00000-0  30550-4 0  9999,2 55745  70.0040 212.6481 0002437 264.6424  95.4457 14.98328282 39617,6950.198,96.107,573.757,570.369,0.0
